{"type": "FeatureCollection", "features": [ {"type": "Feature", "properties": {"norad_id": 34626, "name": "COSMOS 2251 DEB", "group": "cosmos-2251-debris", "lat": -57.79723352549139, "lon": -43.36101581586181, "alt_km": 674.8594903640515, "timestamp": "2025-12-02T13:52:17.656133+00:00", "meta": {"OBJECT_NAME": "COSMOS 2251 DEB", "OBJECT_ID": "1993-036WX", "EPOCH": "2025-12-02T03:01:13.192896", "MEAN_MOTION": 14.71994631, "ECCENTRICITY": 0.00261386, "INCLINATION": 74.0482, "RA_OF_ASC_NODE": 344.5278, "ARG_OF_PERICENTER": 76.3883, "MEAN_ANOMALY": 347.2697, "EPHEMERIS_TYPE": 0, "CLASSIFICATION_TYPE": "U", "NORAD_CAT_ID": 34626, "ELEMENT_SET_NO": 999, "REV_AT_EPOCH": 88988, "BSTAR": 0.00098434357, "MEAN_MOTION_DOT": 6.185e-05, "MEAN_MOTION_DDOT": 0}, "tle": {"line1": "1 34626U 93036WX  25336.12584714  .00006185  00000+0  98434-3 0  9993", "line2": "2 34626  74.0482 344.5278 0026138  76.3883 347.2697 14.71994631889880"}}, "geometry": {"type": "Point", "coordinates": [-43.36101581586181, -57.79723352549139]}}, {"type": "Feature", "properties": {"norad_id": 34634, "name": "COSMOS 2251 DEB", "group": "cosmos-2251-debris", "lat": -12.912755327323707, "lon": 50.45192919163332, "alt_km": 743.3023601868454, "timestamp": "2025-12-02T13:52:17.656143+00:00", "meta": {"OBJECT_NAME": "COSMOS 2251 DEB", "OBJECT_ID": "1993-036XF", "EPOCH": "2025-12-01T15:25:16.130784", "MEAN_MOTION": 14.55598707, "ECCENTRICITY": 0.00448231, "INCLINATION": 74.0528, "RA_OF_ASC_NODE": 55.9806, "ARG_OF_PERICENTER": 166.4677, "MEAN_ANOMALY": 320.4107, "EPHEMERIS_TYPE": 0, "CLASSIFICATION_TYPE": "U", "NORAD_CAT_ID": 34634, "ELEMENT_SET_NO": 999, "REV_AT_EPOCH": 88620, "BSTAR": 0.00043465787, "MEAN_MOTION_DOT": 1.893e-05, "MEAN_MOTION_DDOT": 0}, "tle": {"line1": "1 34634U 93036XF  25335.64254781  .00001893  00000+0  43466-3 0  9992", "line2": "2 34634  74.0528  55.9806 0044823 166.4677 320.4107 14.55598707886201"}}, "geometry": {"type": "Point", "coordinates": [50.45192919163332, -12.912755327323707]}}, {"type": "Feature", "properties": {"norad_id": 34635, "name": "COSMOS 2251 DEB", "group": "cosmos-2251-debris", "lat": 63.92159990852133, "lon": -125.42226343104602, "alt_km": 647.7193159894523, "timestamp": "2025-12-02T13:52:17.656153+00:00", "meta": {"OBJECT_NAME": "COSMOS 2251 DEB", "OBJECT_ID": "1993-036XG", "EPOCH": "2025-12-02T00:48:59.255424", "MEAN_MOTION": 14.67990815, "ECCENTRICITY": 0.00298111, "INCLINATION": 74.0449, "RA_OF_ASC_NODE": 91.3982, "ARG_OF_PERICENTER": 163.4267, "MEAN_ANOMALY": 314.1616, "EPHEMERIS_TYPE": 0, "CLASSIFICATION_TYPE": "U", "NORAD_CAT_ID": 34635, "ELEMENT_SET_NO": 999, "REV_AT_EPOCH": 73062, "BSTAR": 0.0017210573, "MEAN_MOTION_DOT": 9.912e-05, "MEAN_MOTION_DDOT": 0}, "tle": {"line1": "1 34635U 93036XG  25336.03401916  .00009912  00000+0  17211-2 0  9999", "line2": "2 34635  74.0449  91.3982 0029811 163.4267 314.1616 14.67990815730623"}}, "geometry": {"type": "Point", "coordinates": [-125.42226343104602, 63.92159990852133]}}, {"type": "Feature", "properties": {"norad_id": 34637, "name": "COSMOS 2251 DEB", "group": "cosmos-2251-debris", "lat": -55.3856139175249, "lon": -34.984228815319135, "alt_km": 674.8770015923701, "timestamp": "2025-12-02T13:52:17.656163+00:00", "meta": {"OBJECT_NAME": "COSMOS 2251 DEB", "OBJECT_ID": "1993-036XJ", "EPOCH": "2025-12-01T20:54:34.608960", "MEAN_MOTION": 14.59911147, "ECCENTRICITY": 0.00507703, "INCLINATION": 74.0473, "RA_OF_ASC_NODE": 121.8801, "ARG_OF_PERICENTER": 194.81, "MEAN_ANOMALY": 290.6553, "EPHEMERIS_TYPE": 0, "CLASSIFICATION_TYPE": "U", "NORAD_CAT_ID": 34637, "ELEMENT_SET_NO": 999, "REV_AT_EPOCH": 88368, "BSTAR": 0.0013023861, "MEAN_MOTION_DOT": 6.327e-05, "MEAN_MOTION_DDOT": 0}, "tle": {"line1": "1 34637U 93036XJ  25335.87123390  .00006327  00000+0  13024-2 0  9994", "line2": "2 34637  74.0473 121.8801 0050770 194.8100 290.6553 14.59911147883688"}}, "geometry": {"type": "Point", "coordinates": [-34.984228815319135, -55.3856139175249]}}, {"type": "Feature", "properties": {"norad_id": 34641, "name": "COSMOS 2251 DEB", "group": "cosmos-2251-debris", "lat": 15.067192150274998, "lon": -83.45883034230003, "alt_km": 730.2043282528994, "timestamp": "2025-12-02T13:52:17.656174+00:00", "meta": {"OBJECT_NAME": "COSMOS 2251 DEB", "OBJECT_ID": "1993-036XN", "EPOCH": "2025-12-02T02:21:23.774976", "MEAN_MOTION": 14.51856184, "ECCENTRICITY": 0.00174543, "INCLINATION": 73.8376, "RA_OF_ASC_NODE": 101.9331, "ARG_OF_PERICENTER": 20.0338, "MEAN_ANOMALY": 157.3323, "EPHEMERIS_TYPE": 0, "CLASSIFICATION_TYPE": "U", "NORAD_CAT_ID": 34641, "ELEMENT_SET_NO": 999, "REV_AT_EPOCH": 88101, "BSTAR": 0.0012344932, "MEAN_MOTION_DOT": 4.956e-05, "MEAN_MOTION_DDOT": 0}, "tle": {"line1": "1 34641U 93036XN  25336.09819184  .00004956  00000+0  12345-2 0  9998", "line2": "2 34641  73.8376 101.9331 0017454  20.0338 157.3323 14.51856184881014"}}, "geometry": {"type": "Point", "coordinates": [-83.45883034230003, 15.067192150274998]}}, {"type": "Feature", "properties": {"norad_id": 34642, "name": "COSMOS 2251 DEB", "group": "cosmos-2251-debris", "lat": 23.023421473800543, "lon": 4.404800354919611, "alt_km": 1034.0069468885558, "timestamp": "2025-12-02T13:52:17.656184+00:00", "meta": {"OBJECT_NAME": "COSMOS 2251 DEB", "OBJECT_ID": "1993-036XP", "EPOCH": "2025-12-01T08:40:14.020896", "MEAN_MOTION": 13.98917658, "ECCENTRICITY": 0.02082878, "INCLINATION": 74.0057, "RA_OF_ASC_NODE": 359.5102, "ARG_OF_PERICENTER": 181.9286, "MEAN_ANOMALY": 198.0794, "EPHEMERIS_TYPE": 0, "CLASSIFICATION_TYPE": "U", "NORAD_CAT_ID": 34642, "ELEMENT_SET_NO": 999, "REV_AT_EPOCH": 85134, "BSTAR": 0.0011420976, "MEAN_MOTION_DOT": 1.961e-05, "MEAN_MOTION_DDOT": 0}, "tle": {"line1": "1 34642U 93036XP  25335.36127339  .00001961  00000+0  11421-2 0  9999", "line2": "2 34642  74.0057 359.5102 0208287 181.9286 198.0794 13.98917658851347"}}, "geometry": {"type": "Point", "coordinates": [4.404800354919611, 23.023421473800543]}}, {"type": "Feature", "properties": {"norad_id": 34671, "name": "COSMOS 2251 DEB", "group": "cosmos-2251-debris", "lat": 73.45826461207994, "lon": -131.40313664766782, "alt_km": 671.596834047692, "timestamp": "2025-12-02T13:52:17.656194+00:00", "meta": {"OBJECT_NAME": "COSMOS 2251 DEB", "OBJECT_ID": "1993-036XR", "EPOCH": "2025-12-02T06:06:12.363264", "MEAN_MOTION": 14.6662458, "ECCENTRICITY": 0.00121578, "INCLINATION": 74.0249, "RA_OF_ASC_NODE": 154.5313, "ARG_OF_PERICENTER": 232.8793, "MEAN_ANOMALY": 304.6558, "EPHEMERIS_TYPE": 0, "CLASSIFICATION_TYPE": "U", "NORAD_CAT_ID": 34671, "ELEMENT_SET_NO": 999, "REV_AT_EPOCH": 88143, "BSTAR": 0.0017430521, "MEAN_MOTION_DOT": 9.68e-05, "MEAN_MOTION_DDOT": 0}, "tle": {"line1": "1 34671U 93036XR  25336.25430976  .00009680  00000+0  17431-2 0  9997", "line2": "2 34671  74.0249 154.5313 0012157 232.8793 304.6558 14.66624580881438"}}, "geometry": {"type": "Point", "coordinates": [-131.40313664766782, 73.45826461207994]}}, {"type": "Feature", "properties": {"norad_id": 34672, "name": "COSMOS 2251 DEB", "group": "cosmos-2251-debris", "lat": -60.21046308604626, "lon": -65.74270761217082, "alt_km": 781.1285216633296, "timestamp": "2025-12-02T13:52:17.656205+00:00", "meta": {"OBJECT_NAME": "COSMOS 2251 DEB", "OBJECT_ID": "1993-036XS", "EPOCH": "2025-11-27T17:59:07.575072", "MEAN_MOTION": 14.36372529, "ECCENTRICITY": 0.00231464, "INCLINATION": 74.0336, "RA_OF_ASC_NODE": 333.1322, "ARG_OF_PERICENTER": 49.1675, "MEAN_ANOMALY": 128.2584, "EPHEMERIS_TYPE": 0, "CLASSIFICATION_TYPE": "U", "NORAD_CAT_ID": 34672, "ELEMENT_SET_NO": 999, "REV_AT_EPOCH": 64962, "BSTAR": 0.00025061703, "MEAN_MOTION_DOT": 7.1e-06, "MEAN_MOTION_DDOT": 0}, "tle": {"line1": "1 34672U 93036XS  25331.74939323  .00000710  00000+0  25062-3 0  9992", "line2": "2 34672  74.0336 333.1322 0023146  49.1675 128.2584 14.36372529649621"}}, "geometry": {"type": "Point", "coordinates": [-65.74270761217082, -60.21046308604626]}}, {"type": "Feature", "properties": {"norad_id": 34678, "name": "COSMOS 2251 DEB", "group": "cosmos-2251-debris", "lat": -9.815922020038625, "lon": 21.329798525511666, "alt_km": 794.2989463871409, "timestamp": "2025-12-02T13:52:17.656215+00:00", "meta": {"OBJECT_NAME": "COSMOS 2251 DEB", "OBJECT_ID": "1993-036XY", "EPOCH": "2025-12-01T23:06:53.591328", "MEAN_MOTION": 14.30062172, "ECCENTRICITY": 0.002425, "INCLINATION": 74.0385, "RA_OF_ASC_NODE": 25.2854, "ARG_OF_PERICENTER": 77.9618, "MEAN_ANOMALY": 348.0362, "EPHEMERIS_TYPE": 0, "CLASSIFICATION_TYPE": "U", "NORAD_CAT_ID": 34678, "ELEMENT_SET_NO": 999, "REV_AT_EPOCH": 87225, "BSTAR": 3.5157384e-05, "MEAN_MOTION_DOT": 6.5e-07, "MEAN_MOTION_DDOT": 0}, "tle": {"line1": "1 34678U 93036XY  25335.96312027  .00000065  00000+0  35157-4 0  9992", "line2": "2 34678  74.0385  25.2854 0024250  77.9618 348.0362 14.30062172872250"}}, "geometry": {"type": "Point", "coordinates": [21.329798525511666, -9.815922020038625]}}, {"type": "Feature", "properties": {"norad_id": 34680, "name": "COSMOS 2251 DEB", "group": "cosmos-2251-debris", "lat": -55.18552620616393, "lon": -6.446065494526152, "alt_km": 693.4358824223773, "timestamp": "2025-12-02T13:52:17.656225+00:00", "meta": {"OBJECT_NAME": "COSMOS 2251 DEB", "OBJECT_ID": "1993-036YA", "EPOCH": "2025-12-02T05:21:49.150656", "MEAN_MOTION": 14.60433554, "ECCENTRICITY": 0.00071085, "INCLINATION": 74.0419, "RA_OF_ASC_NODE": 149.9322, "ARG_OF_PERICENTER": 243.4509, "MEAN_ANOMALY": 292.1101, "EPHEMERIS_TYPE": 0, "CLASSIFICATION_TYPE": "U", "NORAD_CAT_ID": 34680, "ELEMENT_SET_NO": 999, "REV_AT_EPOCH": 88174, "BSTAR": 0.0013366554, "MEAN_MOTION_DOT": 6.454e-05, "MEAN_MOTION_DDOT": 0}, "tle": {"line1": "1 34680U 93036YA  25336.22348554  .00006454  00000+0  13367-2 0  9994", "line2": "2 34680  74.0419 149.9322 0007108 243.4509 292.1101 14.60433554881740"}}, "geometry": {"type": "Point", "coordinates": [-6.446065494526152, -55.18552620616393]}}]}